adsh	cik	name	countryba	stprba	cityba	zipba	bas1	bas2	baph	countryma	stprma	cityma	zipma	mas1	mas2	countryinc	stprinc	ein	former	changed	afs	wksi	fye	form	period	fy	fp	filed	fileNumber	accepted	prevrpt	detail	instance	pubfloatusd	floatdate	inlineurl
0001859919-25-000087	1859919	BARINGS PRIVATE CREDIT CORP	US	NC	CHARLOTTE	28202	300 SOUTH TRYON STREET	SUITE 2500	704-805-7200	US	NC	CHARLOTTE	28202	300 SOUTH TRYON STREET	SUITE 2500	US	MD	863780522	BARINGS PRIVATE CREDIT LLC	20210430	4-NON	0	1231	10-Q	20250930	2025	Q3	20251106	814-01397	2025-11-06 16:21:00.0	0	1	bdc-20250930_htm.xml			https://www.sec.gov/ix?doc=/Archives/edgar/data/1859919/000185991925000087/bdc-20250930.htm
0001742313-25-000080	1742313	MONROE CAPITAL INCOME PLUS CORP	US	IL	CHICAGO	60606	155 NORTH WACKER DRIVE	FLOOR 35	(312) 258-8300	US	IL	CHICAGO	60606	155 NORTH WACKER DRIVE	FLOOR 35	US	MD	000000000			4-NON	0	1231	10-Q	20250930	2025	Q3	20251107	814-01301	2025-11-07 16:07:00.0	0	1	mcip-20250930_htm.xml			https://www.sec.gov/ix?doc=/Archives/edgar/data/1742313/000174231325000080/mcip-20250930.htm
0001193125-25-277953	1578348	INVESTCORP CREDIT MANAGEMENT BDC, INC.	US	NY	NEW YORK	10017	280 PARK AVENUE	39TH FLOOR	212-388-5813	US	NY	NEW YORK	10017	280 PARK AVENUE	39TH FLOOR	US	MD	462883380	CM FINANCE INC	20130531	4-NON	0	1231	10-Q	20250930	2025	Q3	20251112	814-01054	2025-11-12 17:14:00.0	0	1	icmb-20250930_htm.xml			https://www.sec.gov/ix?doc=/Archives/edgar/data/1578348/000119312525277953/icmb-20250930.htm
0001193125-25-277880	1982701	AB PRIVATE LENDING FUND	US	TX	AUSTIN	78701	405 COLORADO STREET	SUITE 1500	512-721-2900	US	TX	AUSTIN	78701	405 COLORADO STREET	SUITE 1500	US	DE	000000000			4-NON	0	1231	10-Q	20250930	2025	Q3	20251112	814-01744	2025-11-12 17:02:00.0	0	1	ck0001982701-20250930_htm.xml			https://www.sec.gov/ix?doc=/Archives/edgar/data/1982701/000119312525277880/ck0001982701-20250930.htm
0001104659-25-111360	2077250	STONE POINT CREDIT INCOME FUND - SELECT	US	CT	GREENWICH	06830	20 HORSENECK LANE		(203) 340-8763	US	CT	GREENWICH	06830	20 HORSENECK LANE		US	DE	000000000			4-NON	0	1231	10-Q	20250930	2025	Q3	20251113	814-01913	2025-11-13 16:26:00.0	0	1	tmb-20250930x10q_htm.xml			https://www.sec.gov/ix?doc=/Archives/edgar/data/2077250/000110465925111360/tmb-20250930x10q.htm
0001655888-25-000024	1655888	BLUE OWL CAPITAL CORP	US	NY	NEW YORK	10022	399 PARK AVENUE		(212) 419-3000	US	NY	NEW YORK	10022	399 PARK AVENUE		US	MD	000000000	OWL ROCK CAPITAL CORP	20151016	1-LAF	0	1231	10-Q	20250930	2025	Q3	20251105	814-01190	2025-11-05 16:36:00.0	0	1	obdc-20250930_htm.xml			https://www.sec.gov/ix?doc=/Archives/edgar/data/1655888/000165588825000024/obdc-20250930.htm
0001193125-25-271488	1919369	VISTA CREDIT STRATEGIC LENDING CORP.	US	CA	SAN FRANCISCO	94111	FOUR EMBARCADERO CENTER, 20TH FLOOR		(415) 765-6500	US	CA	SAN FRANCISCO	94111	FOUR EMBARCADERO CENTER, 20TH FLOOR				881906598			4-NON	0	1231	10-Q	20250930	2025	Q3	20251107	814-01651	2025-11-07 11:19:00.0	0	1	ck0001919369-20250930_htm.xml			https://www.sec.gov/ix?doc=/Archives/edgar/data/1919369/000119312525271488/ck0001919369-20250930.htm
0001193125-25-276898	1715933	TCW DIRECT LENDING VII LLC	US	CA	LOS ANGELES	90071	515 SOUTH FLOWER ST		213-244-0000	US	CA	LOS ANGELES	90071	515 SOUTH FLOWER ST		US	DE	822252672			4-NON	0	1231	10-Q	20250930	2025	Q3	20251112	814-01246	2025-11-12 13:18:00.0	0	1	ck0001715933-20250930_htm.xml			https://www.sec.gov/ix?doc=/Archives/edgar/data/1715933/000119312525276898/ck0001715933-20250930.htm
0001193125-25-277009	1646614	SILVER POINT SPECIALTY LENDING FUND	US	CT	GREENWICH	06830	2 GREENWICH PLAZA	FIRST FLOOR	203-542-4100	US	CT	GREENWICH	06830	2 GREENWICH PLAZA	FIRST FLOOR	US	MD	471577585	SILVER POINT SPECIALTY CREDIT FUND, L.P.	20150629	4-NON	0	1231	10-Q	20250930	2025	Q3	20251112	000-56533	2025-11-12 13:57:00.0	0	1	ck0001646614-20250930_htm.xml			https://www.sec.gov/ix?doc=/Archives/edgar/data/1646614/000119312525277009/ck0001646614-20250930.htm
0001193125-25-278069	1923622	PGIM PRIVATE CREDIT FUND	US	NJ	NEWARK	07102	655 BROAD ST		(973) 802-5032	US	NJ	NEWARK	07102	655 BROAD ST		US	DE	000000000	PGIM SENIOR LOAN OPPORTUNITIES FUND	20220414	4-NON	0	1231	10-Q	20250930	2025	Q3	20251113	814-01582	2025-11-12 17:47:00.0	0	1	ck0001923622-20250930_htm.xml			https://www.sec.gov/ix?doc=/Archives/edgar/data/1923622/000119312525278069/ck0001923622-20250930.htm
0001476765-25-000096	1476765	GOLUB CAPITAL BDC, INC.	US	NY	NEW YORK	10166	200 PARK AVENUE	25TH FLOOR	212.750.6060	US	NY	NEW YORK	10166	200 PARK AVENUE	25TH FLOOR	US	DE	471893276	GOLUB CAPITAL INVESTMENT CORP	20170511	1-LAF	0	0930	10-K	20250930	2025	FY	20251118	814-00794	2025-11-18 16:11:00.0	0	1	gbdc-20250930_htm.xml	3923000000.00	20250331	https://www.sec.gov/ix?doc=/Archives/edgar/data/1476765/000147676525000096/gbdc-20250930.htm
0001628280-25-050299	1849089	LAFAYETTE SQUARE USA, INC.	US	FL	MIAMI		175 SW 7TH STREET	UNIT 2307	7866880975	US	FL	MIAMI		175 SW 7TH STREET	UNIT 2307	US	DE	000000000	LAFAYETTE SQUARE EMPIRE BDC, INC.	20211101	4-NON	0	1231	10-Q	20250930	2025	Q3	20251106	814-01427	2025-11-06 17:06:00.0	0	1	ls-20250930_htm.xml			https://www.sec.gov/ix?doc=/Archives/edgar/data/1849089/000162828025050299/ls-20250930.htm
0002031283-25-000020	2031283	STONE POINT CREDIT INCOME FUND	US	CT	GREENWICH	06830	20 HORSENECK LANE		203-862-2900	US	CT	GREENWICH	06830	20 HORSENECK LANE		US	DE	000000000			4-NON	0	1231	10-Q	20250930	2025	Q3	20251113	814-01783	2025-11-13 16:12:00.0	0	1	spcif-20250930_htm.xml			https://www.sec.gov/ix?doc=/Archives/edgar/data/2031283/000203128325000020/spcif-20250930.htm
0001944831-25-000040	1944831	WILLOW TREE CAPITAL CORP	US	NY	NEW YORK	10022	450 PARK AVENUE	29TH FLOOR	(212) 218-1099	US	NY	NEW YORK	10022	450 PARK AVENUE	29TH FLOOR	US	MD	000000000			4-NON	0	1231	10-Q	20250930	2025	Q3	20251113	814-01797	2025-11-13 16:58:00.0	0	1	wt-20250930_htm.xml			https://www.sec.gov/ix?doc=/Archives/edgar/data/1944831/000194483125000040/wt-20250930.htm
0001193125-25-277125	1920453	FIDELITY PRIVATE CREDIT FUND	US	MA	BOSTON	02210	245 SUMMER STREET		617-563-7000	US	MA	BOSTON	02210	245 SUMMER STREET		US	DE	000000000	FIDELITY PRIVATE CREDIT TRUST	20220330	4-NON	0	1231	10-Q	20250930	2025	Q3	20251112	814-01571	2025-11-12 14:36:00.0	0	1	ck0001920453-20250930_htm.xml			https://www.sec.gov/ix?doc=/Archives/edgar/data/1920453/000119312525277125/ck0001920453-20250930.htm
0001213900-25-109300	1779523	MUZINICH BDC, INC.	US	NY	NEW YORK	10022	450 PARK AVENUE		212.888.3413	US	NY	NEW YORK	10022	450 PARK AVENUE		US	DE	000000000			4-NON	0	1231	10-Q	20250930	2025	Q3	20251112	814-01314	2025-11-12 16:54:00.0	0	1	ea0264890-10q_muzinich_htm.xml			https://www.sec.gov/ix?doc=/Archives/edgar/data/1779523/000121390025109300/ea0264890-10q_muzinich.htm
0001901164-25-000016	1901164	T. ROWE PRICE OHA SELECT PRIVATE CREDIT FUND	US	NY	NEW YORK	10017	C/O OAK HILL ADVISORS, L.P.	1 VANDERBILT, 16TH FLOOR	212-326-1500	US	NY	NEW YORK	10017	C/O OAK HILL ADVISORS, L.P.	1 VANDERBILT, 16TH FLOOR	US	DE	000000000	T. ROWE PRICE OHA PRIVATE CREDIT FUND	20220412	4-NON	0	1231	10-Q	20250930	2025	Q3	20251105	814-01561	2025-11-05 16:32:00.0	0	1	oha-20250930_htm.xml			https://www.sec.gov/ix?doc=/Archives/edgar/data/1901164/000190116425000016/oha-20250930.htm
0001911066-25-000038	1911066	NUVEEN CHURCHILL PRIVATE CAPITAL INCOME FUND	US	NY	NEW YORK	10152	375 PARK AVENUE	9TH FLOOR	(212) 478-9200	US	NY	NEW YORK	10152	375 PARK AVENUE	9TH FLOOR			886187397			4-NON	0	1231	10-Q	20250930	2025	Q3	20251110	814-01494	2025-11-10 17:18:00.0	0	1	ncpif-20250930_htm.xml			https://www.sec.gov/ix?doc=/Archives/edgar/data/1911066/000191106625000038/ncpif-20250930.htm
0001193125-25-274285	1973476	NORTH HAVEN PRIVATE INCOME FUND A LLC	US	NY	NEW YORK	10036	1585 BROADWAY		212-761-4000	US	NY	NEW YORK	10036	1585 BROADWAY		US	DE	000000000			4-NON	0	1231	10-Q	20250930	2025	Q3	20251110	000-56571	2025-11-10 16:17:00.0	0	1	ck0001973476-20250930_htm.xml			https://www.sec.gov/ix?doc=/Archives/edgar/data/1973476/000119312525274285/ck0001973476-20250930.htm
0001535778-25-000148	1535778	MSC INCOME FUND, INC.	US	TX	HOUSTON	77056	1300 POST OAK BOULEVARD, 8TH FLOOR		7133506000	US	TX	HOUSTON	77056	1300 POST OAK BOULEVARD, 8TH FLOOR				453999996	HMS INCOME FUND, INC.	20111129	4-NON	0	1231	10-Q	20250930	2025	Q3	20251114	814-00939	2025-11-14 11:06:00.0	0	1	msif-20250930_htm.xml			https://www.sec.gov/ix?doc=/Archives/edgar/data/1535778/000153577825000148/msif-20250930.htm
0001918712-25-000092	1918712	ARES STRATEGIC INCOME FUND	US	NY	NEW YORK	10067	245 PARK AVE	44TH FLOOR	212-710-2191	US	NY	NEW YORK	10067	245 PARK AVE	44TH FLOOR	US	NY	000000000	ARES PRIVATE CREDIT FUND	20220322	4-NON	0	1231	10-Q	20250930	2025	Q3	20251114	814-01512	2025-11-14 16:22:00.0	0	1	asif-20250930_htm.xml			https://www.sec.gov/ix?doc=/Archives/edgar/data/1918712/000191871225000092/asif-20250930.htm
0002071136-25-000009	2071136	NUVEEN CHURCHILL BDC V	US	NY	NEW YORK	10152	375 PARK AVENUE, 9TH FLOOR		212-478-9200	US	NY	NEW YORK	10152	375 PARK AVENUE, 9TH FLOOR		US	DE	000000000			4-NON	0	1231	10-Q	20250930	2025	Q3	20251113	814-01883	2025-11-12 17:37:00.0	0	1	ncbdcv-20250930_htm.xml			https://www.sec.gov/ix?doc=/Archives/edgar/data/2071136/000207113625000009/ncbdcv-20250930.htm
0001726548-25-000009	1726548	BC PARTNERS LENDING CORP	US	NY	NEW YORK	10022	650 MADISON AVENUE		212-891-2880	US	NY	NEW YORK	10022	650 MADISON AVENUE		US	MD	000000000			4-NON	0	1231	10-Q	20250930	2025	Q3	20251107	814-01269	2025-11-06 18:01:00.0	0	1	bcpl-20250930_htm.xml			https://www.sec.gov/ix?doc=/Archives/edgar/data/1726548/000172654825000009/bcpl-20250930.htm
0001193125-25-276920	1916608	TCW STAR DIRECT LENDING LLC	US	MA	BOSTON	02116	200 CLARENDON STREET	51ST FLOOR	617-936-2275	US	MA	BOSTON	02116	200 CLARENDON STREET	51ST FLOOR	US	DE	000000000	N MIDDLE MARKET LENDING, LLC	20220311	4-NON	0	1231	10-Q	20250930	2025	Q3	20251112	814-01566	2025-11-12 13:25:00.0	0	1	ck0001916608-20250930_htm.xml			https://www.sec.gov/ix?doc=/Archives/edgar/data/1916608/000119312525276920/ck0001916608-20250930.htm
0001104659-25-108430	1895316	BRIGHTWOOD CAPITAL CORP I	US	NY	NEW YORK	10019	810 SEVENTH AVENUE, 26TH FLOOR		646-957-9525	US	NY	NEW YORK	10019	810 SEVENTH AVENUE, 26TH FLOOR		US	MD	000000000			4-NON	0	1231	10-Q	20250930	2025	Q3	20251107	814-01563	2025-11-07 15:39:00.0	0	1	tmb-20250930x10q_htm.xml			https://www.sec.gov/ix?doc=/Archives/edgar/data/1895316/000110465925108430/tmb-20250930x10q.htm
0001193125-25-277533	1633336	CRESCENT CAPITAL BDC, INC.	US	CA	LOS ANGELES	90025	11100 SANTA MONICA BLVD.	SUITE 2000	310-235-5971	US	CA	LOS ANGELES	90025	11100 SANTA MONICA BLVD.	SUITE 2000	US	MD	473162282			4-NON	0	1231	10-Q	20250930	2025	Q3	20251112	814-01132	2025-11-12 16:08:00.0	0	1	ccap-20250930_htm.xml			https://www.sec.gov/ix?doc=/Archives/edgar/data/1633336/000119312525277533/ccap-20250930.htm
0001193125-25-279849	1603480	TCW DIRECT LENDING LLC	US	CA	LOS ANGELES	90071	515 SOUTH FLOWER ST		213-244-0000	US	CA	LOS ANGELES	90071	515 SOUTH FLOWER ST		US	DE	000000000	TCW INVESTMENT CORP.	20140324	4-NON	0	1231	10-Q	20250930	2025	Q3	20251113	814-01069	2025-11-13 14:30:00.0	0	1	ck0001603480-20250930_htm.xml			https://www.sec.gov/ix?doc=/Archives/edgar/data/1603480/000119312525279849/ck0001603480-20250930.htm
0001930087-25-000070	1930087	GOLUB CAPITAL PRIVATE CREDIT FUND	US	NY	NEW YORK	10166	200 PARK AVE	25TH FL	212-750-6060	US	NY	NEW YORK	10166	200 PARK AVE	25TH FL			922030260			4-NON	0	0930	10-K	20250930	2025	FY	20251125	814-01555	2025-11-25 17:13:00.0	0	1	gcred-20250930_htm.xml	0.00	20250930	https://www.sec.gov/ix?doc=/Archives/edgar/data/1930087/000193008725000070/gcred-20250930.htm
0001193125-25-271820	1834543	BLACKROCK DIRECT LENDING CORP.	US	CA	SANTA MONICA	90405	2951 28TH STREET, SUITE 1000		(310) 566-1094	US	CA	SANTA MONICA	90405	2951 28TH STREET, SUITE 1000		US	DE	000000000			4-NON	0	1231	10-Q	20250930	2025	Q3	20251107	814-01378	2025-11-07 13:18:00.0	0	1	ck0001834543-20250930_htm.xml			https://www.sec.gov/ix?doc=/Archives/edgar/data/1834543/000119312525271820/ck0001834543-20250930.htm
0001193125-25-277520	1674760	SILVER CAPITAL HOLDINGS LLC	US	NY	NEW YORK	10282	200 WEST STREET		212-902-1000	US	NY	NEW YORK	10282	200 WEST STREET		US	DE	000000000	GOLDMAN SACHS PRIVATE MIDDLE MARKET CREDIT LLC	20160516	4-NON	0	1231	10-Q	20250930	2025	Q3	20251112	814-01215	2025-11-12 16:06:00.0	0	1	ck0001674760-20250930_htm.xml			https://www.sec.gov/ix?doc=/Archives/edgar/data/1674760/000119312525277520/ck0001674760-20250930.htm
0001396440-25-000184	1396440	MAIN STREET CAPITAL CORP	US	TX	HOUSTON	77056	1300 POST OAK BOULEVARD	8TH FLOOR	(713) 350-6000	US	TX	HOUSTON	77056	1300 POST OAK BOULEVARD	8TH FLOOR	US	MD	412230745			1-LAF	0	1231	10-Q	20250930	2025	Q3	20251107	814-00746	2025-11-07 11:39:00.0	0	1	main-20250930_htm.xml			https://www.sec.gov/ix?doc=/Archives/edgar/data/1396440/000139644025000184/main-20250930.htm
0001193125-25-272093	1784700	VARAGON CAPITAL CORP	US	NY	NEW YORK	10036	151 WEST 42ND STREET	53RD FLOOR	212.235.2600	US	NY	NEW YORK	10036	151 WEST 42ND STREET	53RD FLOOR	US	MD	301206578	VARAGON CAPITAL CORP.	20190806	4-NON	0	1231	10-Q	20250930	2025	Q3	20251107	000-56450	2025-11-07 14:59:00.0	0	1	ck0001784700-20250930_htm.xml			https://www.sec.gov/ix?doc=/Archives/edgar/data/1784700/000119312525272093/ck0001784700-20250930.htm
0001628280-25-054265	2035713	CRESTLINE LENDING SOLUTIONS, LLC	US	TX	FORT WORTH	76102	201 MAIN STREET	SUITE 2100	817.339.7600	US	TX	FORT WORTH	76102	201 MAIN STREET	SUITE 2100			993640580			4-NON	0	1231	10-Q	20250930	2025	Q3	20251128	814-01893	2025-11-28 14:17:00.0	0	1	cls-20250930_htm.xml			https://www.sec.gov/ix?doc=/Archives/edgar/data/2035713/000162828025054265/cls-20250930.htm
0001580345-25-000032	1580345	TRIPLEPOINT VENTURE GROWTH BDC CORP.	US	CA	MENLO PARK	94025	2755 SAND HILL ROAD	SUITE 150	(650) 854-2090	US	CA	MENLO PARK	94025	2755 SAND HILL ROAD	SUITE 150	US	MD	463082016			2-ACC	0	1231	10-Q	20250930	2025	Q3	20251105	814-01044	2025-11-05 16:28:00.0	0	1	tpvg-20250930_htm.xml			https://www.sec.gov/ix?doc=/Archives/edgar/data/1580345/000158034525000032/tpvg-20250930.htm
0001628280-25-051535	1930679	KKR FS INCOME TRUST	US	PA	PHILADELPHIA	19112	201 ROUSE BOULEVARD		215-495-1150	US	PA	PHILADELPHIA	19112	201 ROUSE BOULEVARD		US	DE	880591692	FS KKR INCOME TRUST	20220523	4-NON	0	1231	10-Q	20250930	2025	Q3	20251112	814-01620	2025-11-12 15:04:00.0	0	1	kfit-20250930_htm.xml			https://www.sec.gov/ix?doc=/Archives/edgar/data/1930679/000162828025051535/kfit-20250930.htm
0001213900-25-108212	1747172	KAYNE ANDERSON BDC, INC.	US	TX	HOUSTON	77002	717 TEXAS AVENUE	22ND FLOOR	713-493-2000	US	TX	HOUSTON	77002	717 TEXAS AVENUE	22ND FLOOR	US	DE	830531326	KAYNE ANDERSON BDC, LLC	20180718	1-LAF	0	1231	10-Q	20250930	2025	Q3	20251110	814-01363	2025-11-10 16:12:00.0	0	1	ea0261574-10q_kayne_htm.xml			https://www.sec.gov/ix?doc=/Archives/edgar/data/1747172/000121390025108212/ea0261574-10q_kayne.htm
0001901612-25-000053	1901612	GOLUB CAPITAL BDC 4, INC.	US	NY	NEW YORK	10166	200 PARK AVENUE	25TH FLOOR	212-750-6060	US	NY	NEW YORK	10166	200 PARK AVENUE	25TH FLOOR	US	MD	000000000	GOLUB CAPITAL BDC 4 LLC	20211228	4-NON	0	0930	10-K	20250930	2025	FY	20251121	814-01504	2025-11-21 17:15:00.0	0	1	gbdc4-20250930_htm.xml	0.00	20250930	https://www.sec.gov/ix?doc=/Archives/edgar/data/1901612/000190161225000053/gbdc4-20250930.htm
0001736035-25-000021	1736035	BLACKSTONE SECURED LENDING FUND	US	NY	NEW YORK	10154	345 PARK AVENUE	31ST FLOOR	212-503-2100	US	NY	NEW YORK	10154	345 PARK AVENUE	31ST FLOOR	US	DE	000000000	BLACKSTONE / GSO SECURED LENDING FUND	20180329	1-LAF	0	1231	10-Q	20250930	2025	Q3	20251110	814-01299	2025-11-10 06:10:00.0	0	1	bxsl-20250930_htm.xml			https://www.sec.gov/ix?doc=/Archives/edgar/data/1736035/000173603525000021/bxsl-20250930.htm
0001193125-25-264654	1418076	SLR INVESTMENT CORP.	US	NY	NEW YORK	10022	500 PARK AVENUE	3RD FLOOR	(212) 993-1670	US	NY	NEW YORK	10022	500 PARK AVENUE	3RD FLOOR	US	MD	261381340	SOLAR CAPITAL LTD.	20071109	1-LAF	0	1231	10-Q	20250930	2025	Q3	20251104	814-00754	2025-11-04 16:07:00.0	0	1	ck0001418076-20250930_htm.xml			https://www.sec.gov/ix?doc=/Archives/edgar/data/1418076/000119312525264654/ck0001418076-20250930.htm
0001989817-25-000085	1989817	HPS CORPORATE CAPITAL SOLUTIONS FUND	US	NY	NEW YORK	10019	40 WEST 57TH STREET, 33RD FLOOR		212-287-5161	US	NY	NEW YORK	10019	40 WEST 57TH STREET, 33RD FLOOR		US	DE	936616284			4-NON	0	1231	10-Q	20250930	2025	Q3	20251114	814-01715	2025-11-14 16:36:00.0	0	1	hps-20250930_htm.xml			https://www.sec.gov/ix?doc=/Archives/edgar/data/1989817/000198981725000085/hps-20250930.htm
0001193125-25-277723	1837532	APOLLO DEBT SOLUTIONS BDC	US	NY	NEW YORK	10019	9 WEST 57TH STREET		212-515-3200	US	NY	NEW YORK	10019	9 WEST 57TH STREET				000000000			4-NON	0	1231	10-Q	20250930	2025	Q3	20251112	814-01424	2025-11-12 16:29:00.0	0	1	ck0001837532-20250930_htm.xml			https://www.sec.gov/ix?doc=/Archives/edgar/data/1837532/000119312525277723/ck0001837532-20250930.htm
0001193125-25-277734	1885968	T SERIES MIDDLE MARKET LOAN FUND LLC	US	NY	NEW YORK	10036	1585 BROADWAY		(212) 761-4000	US	NY	NEW YORK	10036	1585 BROADWAY		US	DE	000000000	T SERIES MIDDLE MARKET INVESTMENT LOAN FUND LLC	20211001	4-NON	0	1231	10-Q	20250930	2025	Q3	20251112	814-01453	2025-11-12 16:31:00.0	0	1	ck0001885968-20250930_htm.xml			https://www.sec.gov/ix?doc=/Archives/edgar/data/1885968/000119312525277734/ck0001885968-20250930.htm
0001987731-25-000028	1987731	WTI FUND XI, INC.	US	CA	PORTOLA VALLEY	94028	104 LA MESA DRIVE	SUITE 102	650-234-4300	US	CA	PORTOLA VALLEY	94028	104 LA MESA DRIVE	SUITE 102	US	MD	921737785			4-NON	0	1231	10-Q	20250930	2025	Q3	20251113	814-01718	2025-11-13 16:03:00.0	0	1	wti-20250930_htm.xml			https://www.sec.gov/ix?doc=/Archives/edgar/data/1987731/000198773125000028/wti-20250930.htm
0001193125-25-264618	1508655	SIXTH STREET SPECIALTY LENDING, INC.	US	TX	DALLAS	75201	2100 MCKINNEY AVENUE, SUITE 1500		469-621-3001	US	TX	DALLAS	75201	2100 MCKINNEY AVENUE, SUITE 1500		US	DE	273380000	TPG SPECIALTY LENDING, INC.	20101222	1-LAF	0	1231	10-Q	20250930	2025	Q3	20251104	001-36364	2025-11-04 16:03:00.0	0	1	tslx-20250930_htm.xml			https://www.sec.gov/ix?doc=/Archives/edgar/data/1508655/000119312525264618/tslx-20250930.htm
0001193125-25-282550	1588272	NEXPOINT CAPITAL, INC.	US	TX	DALLAS	75201	300 CRESCENT COURT	SUITE 700	214-276-6300	US	TX	DALLAS	75201	300 CRESCENT COURT	SUITE 700	US	DE	383926499	NEXPOINT CAPITAL, LLC	20131002	4-NON	0	1231	10-Q	20250930	2025	Q3	20251114	814-01074	2025-11-14 14:06:00.0	0	1	d74823d10q_htm.xml			https://www.sec.gov/ix?doc=/Archives/edgar/data/1588272/000119312525282550/d74823d10q.htm
0001766037-25-000018	1766037	NMF SLF I, INC.	US	NY	NEW YORK	10019	787 SEVENTH AVENUE	48TH FLOOR	(212) 720-0300	US	NY	NEW YORK	10019	787 SEVENTH AVENUE	48TH FLOOR	US	MD	000000000	NMF SENIOR LOAN FUND I, INC.	20190125	4-NON	0	1231	10-Q	20250930	2025	Q3	20251113	814-01330	2025-11-13 14:24:00.0	0	1	nmslf-20250930_htm.xml			https://www.sec.gov/ix?doc=/Archives/edgar/data/1766037/000176603725000018/nmslf-20250930.htm
0001193125-25-272318	1965934	OVERLAND ADVANTAGE	US	NY	NEW YORK	10152	375 PARK AVENUE	11TH FLOOR	212-672-5088	US	NY	NEW YORK	10152	375 PARK AVENUE	11TH FLOOR	US	DE	000000000			4-NON	0	1231	10-Q	20250930	2025	Q3	20251107	814-01698	2025-11-07 16:06:00.0	0	1	ck0001965934-20250930_htm.xml			https://www.sec.gov/ix?doc=/Archives/edgar/data/1965934/000119312525272318/ck0001965934-20250930.htm
0001193125-25-265688	1794776	PALMER SQUARE CAPITAL BDC INC.	US	KS	MISSION WOODS	66205	1900 SHAWNEE MISSION PARKWAY	SUITE 315	816-994-3200	US	KS	MISSION WOODS	66205	1900 SHAWNEE MISSION PARKWAY	SUITE 315	US	MD	843665200			2-ACC	0	1231	10-Q	20250930	2025	Q3	20251105	814-01334	2025-11-05 07:01:00.0	0	1	psbd-20250930_htm.xml			https://www.sec.gov/ix?doc=/Archives/edgar/data/1794776/000119312525265688/psbd-20250930.htm
0001140361-25-042261	1786835	STAR MOUNTAIN LOWER MIDDLE-MARKET CAPITAL CORP	US	NY	NEW YORK	10017	140 EAST 45TH STREET, 37TH FLOOR		646.787.0203	US	NY	NEW YORK	10017	140 EAST 45TH STREET, 37TH FLOOR		US	DE	842783833	STAR MOUNTAIN CREDIT OPPORTUNITIES FUND, LP	20190829	4-NON	0	1231	10-Q	20250930	2025	Q3	20251114	814-01399	2025-11-14 14:25:00.0	0	1	ef20054975_10q_htm.xml			https://www.sec.gov/ix?doc=/Archives/edgar/data/1786835/000114036125042261/ef20054975_10q.htm
0001193125-25-274253	2006758	MIDCAP APOLLO INSTITUTIONAL PRIVATE LENDING	US	NY	NEW YORK	10019	9 WEST 57TH STREET	42ND FLOOR	212-515-3200	US	NY	NEW YORK	10019	9 WEST 57TH STREET	42ND FLOOR	US	DE	934353274	MIDDLE MARKET APOLLO INSTITUTIONAL PRIVATE LENDING	20240103	4-NON	0	1231	10-Q	20250930	2025	Q3	20251110	814-01710	2025-11-10 16:13:00.0	0	1	ck0002006758-20250930_htm.xml			https://www.sec.gov/ix?doc=/Archives/edgar/data/2006758/000119312525274253/ck0002006758-20250930.htm
0001193125-25-277562	2020354	WEST BAY BDC LLC	US	NY	NEW YORK	10282	200 WEST STREET		312-655-4419	US	NY	NEW YORK	10282	200 WEST STREET		US	DE	000000000			4-NON	0	1231	10-Q	20250930	2025	Q3	20251112	814-01758	2025-11-12 16:09:00.0	0	1	ck0002020354-20250930_htm.xml			https://www.sec.gov/ix?doc=/Archives/edgar/data/2020354/000119312525277562/ck0002020354-20250930.htm
0002049733-25-000049	2049733	BLACKSTONE PRIVATE REAL ESTATE CREDIT & INCOME FUND	US	NY	NEW YORK	10154	345 PARK AVENUE		000-000-0000	US	NY	NEW YORK	10154	345 PARK AVENUE		US	DE	000000000	BLACKSTONE PRIVATE REAL ESTATE CREDIT FUND	20241223	4-NON	0	1231	10-Q	20250930	2025	Q3	20251112	814-01853	2025-11-12 17:26:00.0	0	1	brec-20250930_htm.xml			https://www.sec.gov/ix?doc=/Archives/edgar/data/2049733/000204973325000049/brec-20250930.htm
0001811972-25-000032	1811972	BARINGS CAPITAL INVESTMENT CORP	US	NC	CHARLOTTE	28202	300 SOUTH TRYON STREET	SUITE 2500	(704) 805-7200	US	NC	CHARLOTTE	28202	300 SOUTH TRYON STREET	SUITE 2500	US	MD	000000000			4-NON	0	1231	10-Q	20250930	2025	Q3	20251106	814-01348	2025-11-06 16:22:00.0	0	1	bdc-20250930_htm.xml			https://www.sec.gov/ix?doc=/Archives/edgar/data/1811972/000181197225000032/bdc-20250930.htm
0001901606-25-000079	1901606	GOLUB CAPITAL DIRECT LENDING UNLEVERED CORP	US	NY	NEW YORK	10166	200 PARK AVENUE	25TH FLOOR	212-750-6060	US	NY	NEW YORK	10166	200 PARK AVENUE	25TH FLOOR	US	MD	000000000	GOLUB CAPITAL DIRECT LENDING UNLEVERED LLC	20211228	4-NON	0	0930	10-K	20250930	2025	FY	20251126	814-01505	2025-11-26 15:29:00.0	0	1	gdlcu-20250930_htm.xml	0.00	20250930	https://www.sec.gov/ix?doc=/Archives/edgar/data/1901606/000190160625000079/gdlcu-20250930.htm
0001913724-25-000088	1913724	TPG TWIN BROOK CAPITAL INCOME FUND	US	NY	NEW YORK	10167	245 PARK AVENUE, 26TH FLOOR		(212) 692-8237	US	NY	NEW YORK	10167	245 PARK AVENUE, 26TH FLOOR		US	DE	886103622	AG TWIN BROOK CAPITAL INCOME FUND	20220225	4-NON	0	1231	10-Q	20250930	2025	Q3	20251112	814-01523	2025-11-10 17:56:00.0	0	1	tcap-20250930_htm.xml			https://www.sec.gov/ix?doc=/Archives/edgar/data/1913724/000191372425000088/tcap-20250930.htm
0001193125-25-269512	1278752	MIDCAP FINANCIAL INVESTMENT CORP	US	NY	NEW YORK	10019	9 W. 57TH STREET		(212) 822-0509	US	NY	NEW YORK	10019	9 W. 57TH STREET		US	MD	522439556	APOLLO INVESTMENT CORP	20040227	1-LAF	0	1231	10-Q	20250930	2025	Q3	20251106	814-00646	2025-11-06 16:13:00.0	0	1	mfic-20250930_htm.xml			https://www.sec.gov/ix?doc=/Archives/edgar/data/1278752/000119312525269512/mfic-20250930.htm
0001193125-25-279957	1950803	STEPSTONE PRIVATE CREDIT FUND LLC	US	NY	NEW YORK	10172	277 PARK AVENUE	44TH FLOOR	212-351-6100	US	NY	NEW YORK	10172	277 PARK AVENUE	44TH FLOOR	US	DE	000000000			4-NON	0	1231	10-Q	20250930	2025	Q3	20251113	814-01624	2025-11-13 15:07:00.0	0	1	d202550d10q_htm.xml			https://www.sec.gov/ix?doc=/Archives/edgar/data/1950803/000119312525279957/d202550d10q.htm
0001193125-25-278786	1843162	CHICAGO ATLANTIC BDC, INC.	US	NY	NEW YORK	10022	600 MADISON AVE, SUITE 1800		(212) 905-4923	US	NY	NEW YORK	10022	600 MADISON AVE, SUITE 1800		US	MD	000000000	SILVER SPIKE INVESTMENT CORP.	20210128	4-NON	0	1231	10-Q	20250930	2025	Q3	20251113	814-01383	2025-11-13 06:56:00.0	0	1	lien-20250930_htm.xml			https://www.sec.gov/ix?doc=/Archives/edgar/data/1843162/000119312525278786/lien-20250930.htm
0001193125-25-280638	1993402	ANTARES STRATEGIC CREDIT FUND	US	IL	CHICAGO	60661	C/O ANTARES CAPITAL CREDIT ADVISERS LLC	500 WEST MONROE STREET, SUITE 1700	312-638-4000	US	IL	CHICAGO	60661	C/O ANTARES CAPITAL CREDIT ADVISERS LLC	500 WEST MONROE STREET, SUITE 1700	US	DE	000000000			4-NON	0	1231	10-Q	20250930	2025	Q3	20251114	814-01700	2025-11-13 18:19:00.0	0	1	ck0001993402-20250930_htm.xml			https://www.sec.gov/ix?doc=/Archives/edgar/data/1993402/000119312525280638/ck0001993402-20250930.htm
0001838126-25-000073	1838126	HPS CORPORATE LENDING FUND	US	NY	NEW YORK	10019	40 WEST 57TH STREET, 33RD FLOOR		212.287.6767	US	NY	NEW YORK	10019	40 WEST 57TH STREET, 33RD FLOOR		US	NY	876391045			4-NON	0	1231	10-Q	20250930	2025	Q3	20251114	814-01431	2025-11-14 13:58:00.0	0	1	hps-20250930_htm.xml			https://www.sec.gov/ix?doc=/Archives/edgar/data/1838126/000183812625000073/hps-20250930.htm
0001379785-25-000050	1379785	BARINGS BDC, INC.	US	NC	CHARLOTTE	28202	300 SOUTH TRYON STREET	SUITE 2500	(704) 805-7200	US	NC	CHARLOTTE	28202	300 SOUTH TRYON STREET	SUITE 2500	US	NC	061798488	TRIANGLE CAPITAL CORP	20061101	1-LAF	0	1231	10-Q	20250930	2025	Q3	20251106	814-00733	2025-11-06 16:21:00.0	0	1	bbdc-20250930_htm.xml			https://www.sec.gov/ix?doc=/Archives/edgar/data/1379785/000137978525000050/bbdc-20250930.htm
0001213900-25-110796	1817825	STEELE CREEK CAPITAL CORP	US	NC	CHARLOTTE	28244	201 S. COLLEGE ST	SUITE 1690	971-719-5750	US	NC	CHARLOTTE	28244	201 S. COLLEGE ST	SUITE 1690	US	MD	000000000	MSC CAPITAL LLC	20200713	4-NON	0	1231	10-Q	20250930	2025	Q3	20251114	814-01351	2025-11-14 15:52:00.0	0	1	ea0262329-10q_steele_htm.xml			https://www.sec.gov/ix?doc=/Archives/edgar/data/1817825/000121390025110796/ea0262329-10q_steele.htm
0001193125-25-264648	1932591	SLR PRIVATE CREDIT BDC II LLC	US	NY	NEW YORK	10022	500 PARK AVENUE		2129931660	US	NY	NEW YORK	10022	500 PARK AVENUE		US	DE	881890628			4-NON	0	1231	10-Q	20250930	2025	Q3	20251104	814-01616	2025-11-04 16:06:00.0	0	1	ck0001932591-20250930_htm.xml			https://www.sec.gov/ix?doc=/Archives/edgar/data/1932591/000119312525264648/ck0001932591-20250930.htm
0001193125-25-280628	2065397	ANTARES STRATEGIC CREDIT FUND II LLC	US	IL	CHICAGO	60606	320 SOUTH CANAL STREET	SUITE 4200	312-638-4000	US	IL	CHICAGO	60606	320 SOUTH CANAL STREET	SUITE 4200	US	DE	000000000			4-NON	0	1231	10-Q	20250930	2025	Q2	20251114	814-01874	2025-11-13 18:13:00.0	0	1	ck0002065397-20250930_htm.xml			https://www.sec.gov/ix?doc=/Archives/edgar/data/2065397/000119312525280628/ck0002065397-20250930.htm
0001213900-25-110066	845385	PRINCETON CAPITAL CORP	US	MA	NORTH ANDOVER	01845	800 TURNPIKE STREET	SUITE 300	978-794-3366	US	MA	NORTH ANDOVER	01845	800 TURNPIKE STREET	SUITE 300	US	MD	463516073	REGAL ONE CORP	20090730	4-NON	0	1231	10-Q	20250930	2025	Q3	20251113	814-00710	2025-11-13 16:47:00.0	0	1	ea0264617-10q_prince_htm.xml			https://www.sec.gov/ix?doc=/Archives/edgar/data/845385/000121390025110066/ea0264617-10q_prince.htm
0001702510-25-000139	1702510	CARLYLE CREDIT SOLUTIONS, INC.	US	NY	NEW YORK	10017	ONE VANDERBILT AVENUE	SUITE 3400	212-813-4900	US	NY	NEW YORK	10017	ONE VANDERBILT AVENUE	SUITE 3400	US	MD	815320146	TCG BDC II, INC.	20170330	4-NON	0	1231	10-Q	20250930	2025	Q3	20251112	814-01248	2025-11-12 16:02:00.0	0	1	cars-20250930_htm.xml			https://www.sec.gov/ix?doc=/Archives/edgar/data/1702510/000170251025000139/cars-20250930.htm
0001193125-25-280138	1954360	CRESCENT PRIVATE CREDIT INCOME CORP	US	CA	LOS ANGELES	90025	11100 SANTA MONICA BLVD.	SUITE 2000	310-235-5900	US	CA	LOS ANGELES	90025	11100 SANTA MONICA BLVD.	SUITE 2000	US	MD	884283363			4-NON	0	1231	10-Q	20250930	2025	Q3	20251113	814-01599	2025-11-13 16:08:00.0	0	1	ck0001954360-20250930_htm.xml			https://www.sec.gov/ix?doc=/Archives/edgar/data/1954360/000119312525280138/ck0001954360-20250930.htm
0001193125-25-269840	1572694	GOLDMAN SACHS BDC, INC.	US	NY	NEW YORK	10282	200 WEST STREET	ATT: PRIVATE CREDIT GROUP	1-212-902-0328	US	NY	NEW YORK	10282	200 WEST STREET	ATT: PRIVATE CREDIT GROUP	US	DE	462176593	GOLDMAN SACHS LIBERTY HARBOR CAPITAL, LLC	20130321	1-LAF	0	1231	10-Q	20250930	2025	Q3	20251106	814-00998	2025-11-06 16:47:00.0	0	1	gsbd-20250930_htm.xml			https://www.sec.gov/ix?doc=/Archives/edgar/data/1572694/000119312525269840/gsbd-20250930.htm
0001193125-25-277763	1905824	PIMCO CAPITAL SOLUTIONS BDC CORP.	US	CA	NEWPORT BEACH	92660	650 NEWPORT CENTER DRIVE		888.887.4626	US	CA	NEWPORT BEACH	92660	650 NEWPORT CENTER DRIVE		US	DE	000000000			4-NON	0	1231	10-Q	20250930	2025	Q3	20251112	814-01549	2025-11-12 16:33:00.0	0	1	d67463d10q_htm.xml			https://www.sec.gov/ix?doc=/Archives/edgar/data/1905824/000119312525277763/d67463d10q.htm
0001193125-25-276098	2012139	FORTRESS PRIVATE LENDING FUND	US	NY	NEW YORK	10105	1345 AVENUE OF THE AMERICAS		(212) 798-6100	US	NY	NEW YORK	10105	1345 AVENUE OF THE AMERICAS		US	DE	000000000			4-NON	0	1231	10-Q	20250930	2025	Q3	20251112	814-01880	2025-11-12 08:28:00.0	0	1	ck0002012139-20250930_htm.xml			https://www.sec.gov/ix?doc=/Archives/edgar/data/2012139/000119312525276098/ck0002012139-20250930.htm
0001792509-25-000029	1792509	TRIPLEPOINT PRIVATE VENTURE CREDIT INC.	US	CA	MENLO PARK	94025	2755 SAND HILL ROAD	SUITE 150	650-233-2102	US	CA	MENLO PARK	94025	2755 SAND HILL ROAD	SUITE 150	US	MD	843383695	TRIPLEPOINT GLOBAL VENTURE CREDIT, LLC	20191028	4-NON	0	1231	10-Q	20250930	2025	Q3	20251112	814-01327	2025-11-12 16:18:00.0	0	1	tpvc-20250930_htm.xml			https://www.sec.gov/ix?doc=/Archives/edgar/data/1792509/000179250925000029/tpvc-20250930.htm
0001193125-25-271605	1860424	ONEX DIRECT LENDING BDC FUND	US	NJ	ENGLEWOOD CLIFFS	07632	930 SYLVAN AVENUE		(201) 541-2121	US	NJ	ENGLEWOOD CLIFFS	07632	930 SYLVAN AVENUE		US	DE	000000000	ONEX FALCON DIRECT LENDING BDC FUND	20210709	4-NON	0	1231	10-Q	20250930	2025	Q3	20251107	814-01405	2025-11-07 12:02:00.0	0	1	ck0001860424-20250930_htm.xml			https://www.sec.gov/ix?doc=/Archives/edgar/data/1860424/000119312525271605/ck0001860424-20250930.htm
0001193125-25-278012	2052153	APOLLO ORIGINATION II (UL) CAPITAL TRUST	US	NY	NEW YORK	10019	9 WEST 57TH STREET, 42ND FLOOR		212-822-0516	US	NY	NEW YORK	10019	9 WEST 57TH STREET, 42ND FLOOR		US	DE	000000000			4-NON	0	1231	10-Q	20250930	2025	Q3	20251112	000-56723	2025-11-12 17:25:00.0	0	1	ck0002052153-20250930_htm.xml			https://www.sec.gov/ix?doc=/Archives/edgar/data/2052153/000119312525278012/ck0002052153-20250930.htm
0001661306-25-000087	1661306	HANCOCK PARK CORPORATE INCOME, INC.	US	IL	CHICAGO	60606	222 WEST ADAMS STREET	SUITE 1850	847-734-2000	US	IL	CHICAGO	60606	222 WEST ADAMS STREET	SUITE 1850	US	MD	810850535			4-NON	0	1231	10-Q	20250930	2025	Q3	20251107	814-01185	2025-11-07 12:25:00.0	0	1	han-20250930_htm.xml			https://www.sec.gov/ix?doc=/Archives/edgar/data/1661306/000166130625000087/han-20250930.htm
0001193125-25-282614	1987221	JOHN HANCOCK COMVEST PRIVATE INCOME FUND	US	FL	WEST PALM BEACH	33401	360 S. ROSEMARY AVENUE, SUITE 1700		(561) 727-2200	US	FL	WEST PALM BEACH	33401	360 S. ROSEMARY AVENUE, SUITE 1700		US	DE	932227144	AMG COMVEST SENIOR LENDING FUND	20231024	4-NON	0	1231	10-Q	20250930	2025	Q3	20251114	814-01669	2025-11-14 14:36:00.0	0	1	ck0001987221-20250930_htm.xml			https://www.sec.gov/ix?doc=/Archives/edgar/data/1987221/000119312525282614/ck0001987221-20250930.htm
0001193125-25-277634	2028686	SL INVESTMENT FUND II LLC	US	NY	NEW YORK	10036	1585 BROADWAY		212-761-4000	US	NY	NEW YORK	10036	1585 BROADWAY		US	DE	000000000			4-NON	0	1231	10-Q	20250930	2025	Q3	20251112	814-01754	2025-11-12 16:18:00.0	0	1	ck0002028686-20250930_htm.xml			https://www.sec.gov/ix?doc=/Archives/edgar/data/2028686/000119312525277634/ck0002028686-20250930.htm
0001193125-25-269438	1782524	MORGAN STANLEY DIRECT LENDING FUND	US	NY	NEW YORK	10036	1585 BROADWAY		212 761 0380	US	NY	NEW YORK	10036	1585 BROADWAY		US	DE	000000000	MORGAN STANLEY DIRECT LENDING FUND LLC	20190923	1-LAF	0	1231	10-Q	20250930	2025	Q3	20251106	814-01332	2025-11-06 16:04:00.0	0	1	msdl-20250930_htm.xml			https://www.sec.gov/ix?doc=/Archives/edgar/data/1782524/000119312525269438/msdl-20250930.htm
0001193125-25-277611	1983514	LGAM PRIVATE CREDIT LLC	US	NY	NEW YORK	10036	1585 BROADWAY		(212) 761-4000	US	NY	NEW YORK	10036	1585 BROADWAY		US	DE	000000000			4-NON	0	1231	10-Q	20250930	2025	Q3	20251112	814-01674	2025-11-12 16:17:00.0	0	1	ck0001983514-20250930_htm.xml			https://www.sec.gov/ix?doc=/Archives/edgar/data/1983514/000119312525277611/ck0001983514-20250930.htm
0001544206-25-000077	1544206	CARLYLE SECURED LENDING, INC.	US	NY	NEW YORK	10017	ONE VANDERBILT AVENUE, SUITE 3400		(212) 813-4900	US	NY	NEW YORK	10017	ONE VANDERBILT AVENUE, SUITE 3400		US	MD	454727439	TCG BDC, INC.	20170315	1-LAF	0	1231	10-Q	20250930	2025	Q3	20251104	814-00995	2025-11-04 16:02:00.0	0	1	csl-20250930_htm.xml			https://www.sec.gov/ix?doc=/Archives/edgar/data/1544206/000154420625000077/csl-20250930.htm
0001193125-25-271826	1902649	BLACKROCK PRIVATE CREDIT FUND	US	NY	NEW YORK	10001	50 HUDSON YARDS		(212) 813-5800	US	NY	NEW YORK	10001	50 HUDSON YARDS		US	DE	000000000			4-NON	0	1231	10-Q	20250930	2025	Q3	20251107	814-01485	2025-11-07 13:20:00.0	0	1	ck0001902649-20250930_htm.xml			https://www.sec.gov/ix?doc=/Archives/edgar/data/1902649/000119312525271826/ck0001902649-20250930.htm
0001193125-25-278006	2052152	APOLLO ORIGINATION II (LEVERED) CAPITAL TRUST	US	NY	NEW YORK	10019	9 WEST 57TH STREET, 42ND FLOOR		212-822-0516	US	NY	NEW YORK	10019	9 WEST 57TH STREET, 42ND FLOOR		US	DE	000000000	APOLLO ORIGINATION II (L) CAPITAL TRUST	20250114	4-NON	0	1231	10-Q	20250930	2025	Q3	20251112	000-56722	2025-11-12 17:23:00.0	0	1	none-20250930_htm.xml			https://www.sec.gov/ix?doc=/Archives/edgar/data/2052152/000119312525278006/none-20250930.htm
0001414932-25-000022	1414932	OAKTREE SPECIALTY LENDING CORP	US	CA	LOS ANGLES	90071	333 SOUTH GRAND AVENUE	28TH FLOOR	(213) 830-6300	US	CA	LOS ANGLES	90071	333 SOUTH GRAND AVENUE	28TH FLOOR	US	DE	261219283	FIFTH STREET FINANCE CORP.	20130926	1-LAF	1	0930	10-K	20250930	2025	FY	20251118	814-00755	2025-11-17 18:00:00.0	0	1	ocsl-20250930_htm.xml	1231000000.00	20250331	https://www.sec.gov/ix?doc=/Archives/edgar/data/1414932/000141493225000022/ocsl-20250930.htm
0001655887-25-000060	1655887	BLUE OWL CAPITAL CORP II	US	NY	NEW YORK	10022	399 PARK AVENUE		(212) 419-3000	US	NY	NEW YORK	10022	399 PARK AVENUE		US	MD	000000000	OWL ROCK CAPITAL CORP II	20151016	4-NON	0	1231	10-Q	20250930	2025	Q3	20251105	814-01219	2025-11-05 16:40:00.0	0	1	obdc-20250930_htm.xml			https://www.sec.gov/ix?doc=/Archives/edgar/data/1655887/000165588725000060/obdc-20250930.htm
0001104659-25-112365	1901037	STELLUS PRIVATE CREDIT BDC	US	TX	HOUSTON	77027	4400 POST OAK PARKWAY	SUITE 2200	7132925414	US	TX	HOUSTON	77027	4400 POST OAK PARKWAY	SUITE 2200	US	DE	876878660			4-NON	0	1231	10-Q	20250930	2025	Q3	20251114	814-01475	2025-11-14 15:02:00.0	0	1	tmb-20250930x10q_htm.xml			https://www.sec.gov/ix?doc=/Archives/edgar/data/1901037/000110465925112365/tmb-20250930x10q.htm
0001193125-25-269489	1513363	FIDUS INVESTMENT CORP	US	IL	EVANSTON	60201	1603 ORRINGTON AVENUE	SUITE 820	847-859-3940	US	IL	EVANSTON	60201	1603 ORRINGTON AVENUE	SUITE 820	US	MD	275017321			2-ACC	0	1231	10-Q	20250930	2025	Q3	20251106	814-00861	2025-11-06 16:10:00.0	0	1	fdus-20250930_htm.xml			https://www.sec.gov/ix?doc=/Archives/edgar/data/1513363/000119312525269489/fdus-20250930.htm
0001213900-25-112730	2045370	REMORA CAPITAL CORP	US	TN	NASHVILLE	37203	3200 WEST END AVENUE	SUITE 500	615-380-1095	US	TN	NASHVILLE	37203	3200 WEST END AVENUE	SUITE 500	US	MD	000000000			4-NON	0	1231	10-Q	20250930	2025	Q3	20251119	814-01897	2025-11-19 17:24:00.0	0	1	ea0266252-10q_remora_htm.xml			https://www.sec.gov/ix?doc=/Archives/edgar/data/2045370/000121390025112730/ea0266252-10q_remora.htm
0001512931-25-000074	1512931	MONROE CAPITAL CORP	US	IL	CHICAGO	60606	155 NORTH WACKER DRIVE	FLOOR 35	312-258-8300	US	IL	CHICAGO	60606	155 NORTH WACKER DRIVE	FLOOR 35	US	NY	274895840			4-NON	0	1231	10-Q	20250930	2025	Q3	20251105	814-00866	2025-11-05 17:11:00.0	0	1	mrcc-20250930_htm.xml			https://www.sec.gov/ix?doc=/Archives/edgar/data/1512931/000151293125000074/mrcc-20250930.htm
0001213900-25-109299	1985375	MUZINICH CORPORATE LENDING INCOME FUND, INC.	US	NY	NEW YORK	10022	450 PARK AVENUE		212-888-3413	US	NY	NEW YORK	10022	450 PARK AVENUE		US	DE	000000000	MUZINICH DIRECT LENDING INCOME FUND, INC.	20230713	4-NON	0	1231	10-Q	20250930	2025	Q3	20251112	814-01659	2025-11-12 16:54:00.0	0	1	ea0264889-10q_muzinich_htm.xml			https://www.sec.gov/ix?doc=/Archives/edgar/data/1985375/000121390025109299/ea0264889-10q_muzinich.htm
0001193125-25-266848	1925309	SIXTH STREET LENDING PARTNERS	US	TX	DALLAS	75201	2100 MCKINNEY AVENUE	SUITE 1500	(469) 621-3001	US	TX	DALLAS	75201	2100 MCKINNEY AVENUE	SUITE 1500	US	DE	881710161			4-NON	0	1231	10-Q	20250930	2025	Q3	20251105	814-01543	2025-11-05 16:02:00.0	0	1	ck0001925309-20250930_htm.xml			https://www.sec.gov/ix?doc=/Archives/edgar/data/1925309/000119312525266848/ck0001925309-20250930.htm
0001825248-25-000022	1825248	FRANKLIN BSP CAPITAL CORP	US	NY	NEW YORK	10010	ONE MADISON AVENUE	SUITE 1600	(212) 588-6700	US	NY	NEW YORK	10010	ONE MADISON AVENUE	SUITE 1600	US	DE	000000000	FRANKLIN BSP CAPITAL L.L.C.	20200917	4-NON	0	1231	10-Q	20250930	2025	Q3	20251112	814-01360	2025-11-12 15:17:00.0	0	1	fbcc-20250930_htm.xml			https://www.sec.gov/ix?doc=/Archives/edgar/data/1825248/000182524825000022/fbcc-20250930.htm
0001193125-25-264873	1675033	GREAT ELM CAPITAL CORP.	US	FL	PALM BEACH GARDENS	33410	3801 PGA BOULEVARD	SUITE 603	617-375-3006	US	FL	PALM BEACH GARDENS	33410	3801 PGA BOULEVARD	SUITE 603	US	MD	812621577			4-NON	0	1231	10-Q	20250930	2025	Q3	20251104	814-01211	2025-11-04 16:43:00.0	0	1	gecc-20250930_htm.xml			https://www.sec.gov/ix?doc=/Archives/edgar/data/1675033/000119312525264873/gecc-20250930.htm
0001193125-25-271491	1950572	BIP VENTURES EVERGREEN BDC	US	GA	ATLANTA	30305	3575 PIEDMONT ROAD	BUILDING 15, SUITE 730	404-410-6476	US	GA	ATLANTA	30305	3575 PIEDMONT ROAD	BUILDING 15, SUITE 730	US	DE	886663716	BIP EVERGREEN VENTURE FUND	20230616	4-NON	0	1231	10-Q	20250930	2025	Q3	20251107	814-01656	2025-11-07 11:19:00.0	0	1	ck0001950572-20250930_htm.xml			https://www.sec.gov/ix?doc=/Archives/edgar/data/1950572/000119312525271491/ck0001950572-20250930.htm
0001193125-25-274163	1655050	BAIN CAPITAL SPECIALTY FINANCE, INC.	US	MA	BOSTON	02116	C/O BAIN CAPITAL CREDIT, LP	200 CLARENDON STREET	(617) 516-2318	US	MA	BOSTON	02116	C/O BAIN CAPITAL CREDIT, LP	200 CLARENDON STREET	US	DE	000000000	SANKATY CAPITAL CORP	20151007	1-LAF	0	1231	10-Q	20250930	2025	Q3	20251110	814-01175	2025-11-10 16:03:00.0	0	1	bcsf-20250930_htm.xml			https://www.sec.gov/ix?doc=/Archives/edgar/data/1655050/000119312525274163/bcsf-20250930.htm
0001493152-25-020943	1509470	SURO CAPITAL CORP.	US	NY	NEW YORK	10019	640 FIFTH AVENUE	12TH FLOOR	(650) 235-4769	US	NY	NEW YORK	10019	640 FIFTH AVENUE	12TH FLOOR	US	MD	274443543	SUTTER ROCK CAPITAL CORP.	20190731	4-NON	0	1231	10-Q	20250930	2025	Q3	20251106	814-00852	2025-11-05 21:20:00.0	0	1	form10-q_htm.xml			https://www.sec.gov/ix?doc=/Archives/edgar/data/1509470/000149315225020943/form10-q.htm
0001747777-25-000048	1747777	BLUE OWL TECHNOLOGY FINANCE CORP.	US	NY	NEW YORK	10022	399 PARK AVENUE		(212) 419-3000	US	NY	NEW YORK	10022	399 PARK AVENUE		US	MD	000000000	OWL ROCK TECHNOLOGY FINANCE CORP.	20180723	4-NON	0	1231	10-Q	20250930	2025	Q3	20251105	814-01284	2025-11-05 16:32:00.0	0	1	ortf-20250930_htm.xml			https://www.sec.gov/ix?doc=/Archives/edgar/data/1747777/000174777725000048/ortf-20250930.htm
0001193125-25-277550	1920145	GOLDMAN SACHS PRIVATE CREDIT CORP.	US	NY	NEW YORK	10282	200 WEST STREET		212-902-0300	US	NY	NEW YORK	10282	200 WEST STREET		US	DE	000000000	GOLDMAN SACHS PRIVATE CREDIT FUND LLC	20220518	4-NON	0	1231	10-Q	20250930	2025	Q3	20251112	814-01627	2025-11-12 16:10:00.0	0	1	ck0001920145-20250930_htm.xml			https://www.sec.gov/ix?doc=/Archives/edgar/data/1920145/000119312525277550/ck0001920145-20250930.htm
0001925531-25-000018	1925531	NEW MOUNTAIN GUARDIAN IV BDC, L.L.C.	US	NY	NEW YORK	10019	1633 BROADWAY	48TH FLOOR	212-720-0300	US	NY	NEW YORK	10019	1633 BROADWAY	48TH FLOOR	US	DE	000000000	NEW MOUNTAIN GUARDIAN IV BDC L.L.C.	20220426	4-NON	0	1231	10-Q	20250930	2025	Q3	20251112	814-01528	2025-11-12 13:44:00.0	0	1	nmg4-20250930_htm.xml			https://www.sec.gov/ix?doc=/Archives/edgar/data/1925531/000192553125000018/nmg4-20250930.htm
0001104659-25-109139	1551901	STELLUS CAPITAL INVESTMENT CORP	US	TX	HOUSTON	77027	4400 POST OAK PARKWAY	SUITE 2200	(713) 292-5400	US	TX	HOUSTON	77027	4400 POST OAK PARKWAY	SUITE 2200	US	MD	000000000			2-ACC	0	1231	10-Q	20250930	2025	Q3	20251110	814-00971	2025-11-10 16:09:00.0	0	1	scm-20250930x10q_htm.xml			https://www.sec.gov/ix?doc=/Archives/edgar/data/1551901/000110465925109139/scm-20250930x10q.htm
0001193125-25-264650	1832148	SLR HC BDC LLC	US	NY	NEW YORK	10022	500 PARK AVENUE	3RD FLOOR	(212) 993-1670	US	NY	NEW YORK	10022	500 PARK AVENUE	3RD FLOOR	US	DE	851801692			4-NON	0	1231	10-Q	20250930	2025	Q3	20251104	814-01382	2025-11-04 16:06:00.0	0	1	ck0001832148-20250930_htm.xml			https://www.sec.gov/ix?doc=/Archives/edgar/data/1832148/000119312525264650/ck0001832148-20250930.htm
0001496099-25-000035	1496099	NEW MOUNTAIN FINANCE CORP	US	NY	NEW YORK	10019	1633 BROADWAY	48TH FLOOR	2127300200	US	NY	NEW YORK	10019	1633 BROADWAY	48TH FLOOR	US		272978010	NEW MOUNTAIN GUARDIAN CORP	20100706	1-LAF	0	1231	10-Q	20250930	2025	Q3	20251103	814-00832	2025-11-03 16:44:00.0	0	1	nmfc-20250930_htm.xml			https://www.sec.gov/ix?doc=/Archives/edgar/data/1496099/000149609925000035/nmfc-20250930.htm
0001628280-25-049617	1422183	FS KKR CAPITAL CORP	US	PA	PHILADELPHIA	19112	201 ROUSE BOULEVARD		215-495-1150	US	PA	PHILADELPHIA	19112	201 ROUSE BOULEVARD		US	MD	261630040	FS INVESTMENT CORP	20080618	1-LAF	0	1231	10-Q	20250930	2025	Q3	20251105	814-00757	2025-11-05 16:30:00.0	0	1	fsk-20250930_htm.xml			https://www.sec.gov/ix?doc=/Archives/edgar/data/1422183/000162828025049617/fsk-20250930.htm
0001911321-25-000014	1911321	KENNEDY LEWIS CAPITAL CO	US	NY	NEW YORK	10281	225 LIBERTY STREET	SUITE 4210	212.782.3482	US	NY	NEW YORK	10281	225 LIBERTY STREET	SUITE 4210	US	DE	886117755	KENNEDY LEWIS CAPITAL HOLDINGS LLC	20221129	4-NON	0	1231	10-Q	20250930	2025	Q3	20251113	814-01603	2025-11-13 16:26:00.0	0	1	ck0001911321-20250930_htm.xml			https://www.sec.gov/ix?doc=/Archives/edgar/data/1911321/000191132125000014/ck0001911321-20250930.htm
0001193125-25-269783	1998387	5C LENDING PARTNERS CORP.	US	NY	RYE	10580	1 STUYVESANT AVENUE		(917) 494-0822	US	NY	RYE	10580	1 STUYVESANT AVENUE		US	MD	000000000			4-NON	0	1231	10-Q	20250930	2025	Q3	20251106	814-01751	2025-11-06 16:38:00.0	0	1	ck0001998387-20250930_htm.xml			https://www.sec.gov/ix?doc=/Archives/edgar/data/1998387/000119312525269783/ck0001998387-20250930.htm
0001193125-25-277881	1634452	AB PRIVATE CREDIT INVESTORS CORP	US	TX	AUSTIN	78701	405 COLORADO STREET	SUITE 1500	(512) 721-2900	US	TX	AUSTIN	78701	405 COLORADO STREET	SUITE 1500	US	NY	000000000	AB PRIVATE CREDIT CORP	20150219	4-NON	0	1231	10-Q	20250930	2025	Q3	20251112	814-01196	2025-11-12 17:02:00.0	0	1	ck0001634452-20250930_htm.xml			https://www.sec.gov/ix?doc=/Archives/edgar/data/1634452/000119312525277881/ck0001634452-20250930.htm
0001143513-25-000015	1143513	GLADSTONE CAPITAL CORP	US	VA	MCLEAN	22102	1521 WESTBRANCH DRIVE	SUITE 100	703-287-5800	US	VA	MCLEAN	22102	1521 WESTBRANCH DRIVE	SUITE 100	US	MD	542040781			4-NON	0	0930	10-K	20250930	2025	FY	20251117	814-00237	2025-11-17 16:03:00.0	0	1	glad-20250930_htm.xml	589377217.00	20250331	https://www.sec.gov/ix?doc=/Archives/edgar/data/1143513/000114351325000015/glad-20250930.htm
0001321741-25-000022	1321741	GLADSTONE INVESTMENT CORPORATIONDE	US	VA	MCLEAN	22102	1521 WESTBRANCH DRIVE	SUITE 100	7032875800	US	VA	MCLEAN	22102	1521 WESTBRANCH DRIVE	SUITE 100	US	DE	830423116			4-NON	0	0331	10-Q	20250930	2026	Q2	20251104	814-00704	2025-11-04 16:10:00.0	0	1	gain-20250930_htm.xml			https://www.sec.gov/ix?doc=/Archives/edgar/data/1321741/000132174125000022/gain-20250930.htm
0001193125-25-272386	1950976	26NORTH BDC, INC.	US	NY	NEW YORK	10022	600 MADISON AVENUE, 26TH FLOOR		212-224-0620	US	NY	NEW YORK	10022	600 MADISON AVENUE, 26TH FLOOR		US	MD	000000000			4-NON	0	1231	10-Q	20250930	2025	Q3	20251107	814-01665	2025-11-07 16:16:00.0	0	1	ck0001950976-20250930_htm.xml			https://www.sec.gov/ix?doc=/Archives/edgar/data/1950976/000119312525272386/ck0001950976-20250930.htm
0001193125-25-274423	1851322	NORTH HAVEN PRIVATE INCOME FUND LLC	US	NY	NEW YORK	10036	1585 BROADWAY		(212) 761-4000	US	NY	NEW YORK	10036	1585 BROADWAY		US	DE	000000000	MORGAN STANLEY PRIVATE INCOME FUND LLC	20210315	4-NON	0	1231	10-Q	20250930	2025	Q3	20251110	814-01489	2025-11-10 16:43:00.0	0	1	ck0001851322-20250930_htm.xml			https://www.sec.gov/ix?doc=/Archives/edgar/data/1851322/000119312525274423/ck0001851322-20250930.htm
0001628280-25-051537	1975736	KKR FS INCOME TRUST SELECT	US	PA	PHILADELPHIA	19112	201 ROUSE BOULEVARD		215-495-1150	US	PA	PHILADELPHIA	19112	201 ROUSE BOULEVARD		US	DE	923617067			4-NON	0	1231	10-Q	20250930	2025	Q3	20251112	814-01706	2025-11-12 15:07:00.0	0	1	kfits-20250930_htm.xml			https://www.sec.gov/ix?doc=/Archives/edgar/data/1975736/000162828025051537/kfits-20250930.htm
0001193125-25-277887	2033362	AUDAX PRIVATE CREDIT FUND, LLC	US	NY	NEW YORK	10022	320 PARK AVENUE		212-703-2700	US	NY	NEW YORK	10022	320 PARK AVENUE		US		000000000	AUDAX PRIVATE CREDIT FUND, LP	20240809	4-NON	0	1231	10-Q	20250930	2025	Q3	20251112	814-01861	2025-11-12 17:02:00.0	0	1	ck0002033362-20250930_htm.xml			https://www.sec.gov/ix?doc=/Archives/edgar/data/2033362/000119312525277887/ck0002033362-20250930.htm
0001737924-25-000013	1737924	NUVEEN CHURCHILL DIRECT LENDING CORP.	US	NY	NEW YORK	10152	375 PARK AVENUE	9TH FLOOR	(212) 207-2003	US	NY	NEW YORK	10152	375 PARK AVENUE	9TH FLOOR	US	MD	000000000	NUVEEN CHURCHILL BDC INC.	20191230	1-LAF	0	1231	10-Q	20250930	2025	Q3	20251104	814-01338	2025-11-03 20:23:00.0	0	1	ncdlc-20250930_htm.xml			https://www.sec.gov/ix?doc=/Archives/edgar/data/1737924/000173792425000013/ncdlc-20250930.htm
0001193125-25-280026	1870267	REDWOOD ENHANCED INCOME CORP.	US	NY	NEW YORK	10019	250 WEST 55TH STREET		(201) 227-5040	US	NY	NEW YORK	10019	250 WEST 55TH STREET		US	MD	000000000			4-NON	0	1231	10-Q	20250930	2025	Q3	20251113	814-01508	2025-11-13 15:37:00.0	0	1	none-20250930_htm.xml			https://www.sec.gov/ix?doc=/Archives/edgar/data/1870267/000119312525280026/none-20250930.htm
0001193125-25-277963	1890107	FIRST EAGLE PRIVATE CREDIT FUND	US	NY	NEW YORK	10105	1345 AVENUE OF THE AMERICAS, 48TH FLOOR		800-450-4424	US	NY	NEW YORK	10105	1345 AVENUE OF THE AMERICAS, 48TH FLOOR		US	DE	000000000			4-NON	0	1231	10-Q	20250930	2025	Q3	20251112	814-01642	2025-11-12 17:17:00.0	0	1	ck0001890107-20250930_htm.xml			https://www.sec.gov/ix?doc=/Archives/edgar/data/1890107/000119312525277963/ck0001890107-20250930.htm
0001193125-25-282900	2017636	CCS IX PORTFOLIO HOLDINGS, LLC	US	CA	LOS ANGELES	90025	11100 SANTA MONICA BLVD	STE 2000	3102355971	US	CA	LOS ANGELES	90025	11100 SANTA MONICA BLVD	STE 2000	US	DE	000000000	CCS IX BDC, LLC	20240328	4-NON	0	1231	10-Q	20250930	2025	Q3	20251114	000-56718	2025-11-14 16:06:00.0	0	1	ck0002017636-20250930_htm.xml			https://www.sec.gov/ix?doc=/Archives/edgar/data/2017636/000119312525282900/ck0002017636-20250930.htm
0001803498-25-000081	1803498	BLACKSTONE PRIVATE CREDIT FUND	US	NY	NEW YORK	10154	345 PARK AVENUE	31ST FLOOR	212-503-2100	US	NY	NEW YORK	10154	345 PARK AVENUE	31ST FLOOR			000000000			4-NON	0	1231	10-Q	20250930	2025	Q3	20251113	814-01358	2025-11-13 16:37:00.0	0	1	bcred-20250930_htm.xml			https://www.sec.gov/ix?doc=/Archives/edgar/data/1803498/000180349825000081/bcred-20250930.htm
0001376474-25-000952	1999538	X1 CAPITAL INC.	US	AL	FAIRHOPE	36532	6637 S WINDING BROOK DR		7136147755	US	AL	FAIRHOPE	36532	6637 S WINDING BROOK DR		US	MD	932414793			4-NON	0	0630	10-Q	20250930	2026	Q1	20251120	814-01672	2025-11-20 14:32:00.0	0	1	xcap-20250930_10q_htm.xml			https://www.sec.gov/ix?doc=/Archives/edgar/data/1999538/000137647425000952/xcap-20250930_10q.htm
0001193125-25-271151	81955	RAND CAPITAL CORP	US	NY	BUFFALO	14203	1405 RAND BUILDING		7168530802	US	NY	BUFFALO	14203	1405 RAND BUILDING		US	NY	160961359			4-NON	0	1231	10-Q	20250930	2025	Q3	20251107	814-00235	2025-11-07 08:46:00.0	0	1	rand-20250930_htm.xml			https://www.sec.gov/ix?doc=/Archives/edgar/data/81955/000119312525271151/rand-20250930.htm
0001717310-25-000023	1717310	VENTURE LENDING & LEASING IX, INC.	US	CA	PORTOLA VALLEY	94028	104 LA MESA DRIVE, SUITE 102		6502344300	US	CA	PORTOLA VALLEY	94028	104 LA MESA DRIVE, SUITE 102		US	MD	822040715	VENTURE LENDING & LEASING FUND IX, INC.	20170918	4-NON	0	1231	10-Q	20250930	2025	Q3	20251113	814-01253	2025-11-13 15:50:00.0	0	1	vll9-20250930_htm.xml			https://www.sec.gov/ix?doc=/Archives/edgar/data/1717310/000171731025000023/vll9-20250930.htm
0001534254-25-000015	1534254	CION INVESTMENT CORP	US	NY	NEW YORK	10017	100 PARK AVENUE	25TH FLOOR	212-418-4700	US	NY	NEW YORK	10017	100 PARK AVENUE	25TH FLOOR	US	MD	453058280	C&#298;ON INVESTMENT CORP	20111104	2-ACC	0	1231	10-Q	20250930	2025	Q3	20251106	814-00941	2025-11-05 19:23:00.0	0	1	cion-20250930_htm.xml			https://www.sec.gov/ix?doc=/Archives/edgar/data/1534254/000153425425000015/cion-20250930.htm
0001193125-25-277555	1948368	PHILLIP STREET MIDDLE MARKET LENDING FUND LLC	US	NY	NEW YORK	10282-2198	200 WEST STREET		212-902-1000	US	NY	NEW YORK	10282-2198	200 WEST STREET		US	DE	000000000			4-NON	0	1231	10-Q	20250930	2025	Q3	20251112	814-01579	2025-11-12 16:09:00.0	0	1	ck0001948368-20250930_htm.xml			https://www.sec.gov/ix?doc=/Archives/edgar/data/1948368/000119312525277555/ck0001948368-20250930.htm
0001955010-25-000013	1955010	OHA SENIOR PRIVATE LENDING FUND (U) LLC	US	NY	NEW YORK	10017	ONE VANDERBILT, 16TH FLOOR		212-326-1500	US	NY	NEW YORK	10017	ONE VANDERBILT, 16TH FLOOR		US	DE	883063992			4-NON	0	1231	10-Q	20250930	2025	Q3	20251105	814-01586	2025-11-05 16:39:00.0	0	1	brhc-20250930_htm.xml			https://www.sec.gov/ix?doc=/Archives/edgar/data/1955010/000195501025000013/brhc-20250930.htm
0001193125-25-293672	1504619	PENNANTPARK FLOATING RATE CAPITAL LTD.	US	NY	NEW YORK	10022	590 MADISON AVENUE	15TH FLOOR	(212) 905-1000	US	NY	NEW YORK	10022	590 MADISON AVENUE	15TH FLOOR			273794690	PENNANTPARK SENIOR FLOATING RATE FUND INC.	20101029	1-LAF	0	0930	10-K	20250930	2025	FY	20251124	814-00891	2025-11-24 16:08:00.0	0	1	pflt-20250930_htm.xml	1069500000.00	20250331	https://www.sec.gov/ix?doc=/Archives/edgar/data/1504619/000119312525293672/pflt-20250930.htm
0001850938-25-000023	1850938	WTI FUND X, INC.	US	CA	PORTOLA VALLEY	94028	104 LA MESA DRIVE	SUITE 102	(650) 234-4300	US	CA	PORTOLA VALLEY	94028	104 LA MESA DRIVE	SUITE 102	US	MD	853539868			4-NON	0	1231	10-Q	20250930	2025	Q3	20251113	814-01414	2025-11-13 15:58:00.0	0	1	wti-20250930_htm.xml			https://www.sec.gov/ix?doc=/Archives/edgar/data/1850938/000185093825000023/wti-20250930.htm
0001104659-25-108820	1552198	WHITEHORSE FINANCE, INC.	US	FL	MIAMI	33131	1450 Brickell Avenue, 31st Floor		(305) 379-2322	US	FL	Miami	33131	1450 Brickell Avenue, 31st Floor		US	DE	454247759	WHITEHORSE FINANCE, LLC	20120613	2-ACC	0	1231	10-Q	20250930	2025	Q3	20251110	814-00967	2025-11-10 07:32:00.0	0	1	whf-20250930x10q_htm.xml			https://www.sec.gov/ix?doc=/Archives/edgar/data/1552198/000110465925108820/whf-20250930x10q.htm
0001193125-25-279909	1916099	DIAMETER CREDIT CO	US	NY	NEW YORK		50 HUDSON YARDS	SUITE 6600A	(212) 655-1419	US	NY	NEW YORK		50 HUDSON YARDS	SUITE 6600A	US	DE	000000000			4-NON	0	1231	10-Q	20250930	2025	Q3	20251113	000-56624	2025-11-13 14:51:00.0	0	1	ck0001916099-20250930_htm.xml			https://www.sec.gov/ix?doc=/Archives/edgar/data/1916099/000119312525279909/ck0001916099-20250930.htm
0001213900-25-107316	1259429	OXFORD SQUARE CAPITAL CORP.	US	CT	GREENWICH	06830	8 SOUND SHORE DR	SUITE 255	2039835275	US	CT	GREENWICH	06830	8 SOUND SHORE DRIVE	SUITE 255	US	MD	200118736	OXFORD STREET CAPITAL CORP.	20180319	4-NON	0	1231	10-Q	20250930	2025	Q3	20251107	814-00638	2025-11-06 20:07:00.0	0	1	ea0262531-01_10q_htm.xml			https://www.sec.gov/ix?doc=/Archives/edgar/data/1259429/000121390025107316/ea0262531-01_10q.htm
0001213900-25-108226	1850787	KAYNE DL 2021, INC.	US	TX	HOUSTON	77002	717 TEXAS AVENUE	SUITE 2200	713-493-2020	US	TX	HOUSTON	77002	717 TEXAS AVENUE	SUITE 2200	US	DE	862440860			4-NON	0	1231	10-Q	20250930	2025	Q3	20251110	814-01393	2025-11-10 16:16:00.0	0	1	ea0261708-10q_kaynedl_htm.xml			https://www.sec.gov/ix?doc=/Archives/edgar/data/1850787/000121390025108226/ea0261708-10q_kaynedl.htm
0001193125-25-268125	1370755	BLACKROCK TCP CAPITAL CORP.	US	CA	SANTA MONICA	90405	2951 28TH STREET	SUITE 1000	310-566-1000	US	CA	SANTA MONICA	90405	2951 28TH STREET	SUITE 1000	US	DE	562594706	TCP CAPITAL CORP.	20120402	1-LAF	0	1231	10-Q	20250930	2025	Q3	20251106	814-00899	2025-11-06 08:02:00.0	0	1	tcpc-20250930_htm.xml			https://www.sec.gov/ix?doc=/Archives/edgar/data/1370755/000119312525268125/tcpc-20250930.htm
0001193125-25-283129	1899017	BAIN CAPITAL PRIVATE CREDIT	US	MA	BOSTON	02116	200 CLARENDON STREET		617.516.2000	US	MA	BOSTON	02116	200 CLARENDON STREET		US	DE	000000000			4-NON	0	1231	10-Q	20250930	2025	Q3	20251114	814-01474	2025-11-14 16:33:00.0	0	1	ck0001899017-20250930_htm.xml			https://www.sec.gov/ix?doc=/Archives/edgar/data/1899017/000119312525283129/ck0001899017-20250930.htm
0001193125-25-265807	1786108	TRINITY CAPITAL INC.	US	AZ	PHOENIX	85004	1 N. 1ST ST.	3RD FLOOR	480.374.5350	US	AZ	PHOENIX	85004	1 N. 1ST ST.	3RD FLOOR	US	MD	000000000			2-ACC	0	1231	10-Q	20250930	2025	Q3	20251105	001-39958	2025-11-05 08:04:00.0	0	1	trin-20250930_htm.xml			https://www.sec.gov/ix?doc=/Archives/edgar/data/1786108/000119312525265807/trin-20250930.htm
0001193125-25-277220	1899996	FIDELITY PRIVATE CREDIT CO LLC	US	MA	BOSTON	02110	245 SUMMER STREET		617-563-7000	US	MA	BOSTON	02110	245 SUMMER STREET		US	DE	000000000	FIDELITY PRIVATE CREDIT CENTRAL FUND LLC	20230209	4-NON	0	1231	10-Q	20250930	2025	Q3	20251112	814-01645	2025-11-12 14:52:00.0	0	1	ck0001899996-20250930_htm.xml			https://www.sec.gov/ix?doc=/Archives/edgar/data/1899996/000119312525277220/ck0001899996-20250930.htm
0001193125-25-276918	1988280	MANULIFE PRIVATE CREDIT FUND	US	MA	BOSTON	02116	197 CLARENDON STREET		617-663-3000	US	MA	BOSTON	02116	197 CLARENDON STREET		US	DE	923968562			4-NON	0	1231	10-Q	20250930	2025	Q3	20251112	814-01664	2025-11-12 13:24:00.0	0	1	d23438d10q_htm.xml			https://www.sec.gov/ix?doc=/Archives/edgar/data/1988280/000119312525276918/d23438d10q.htm
0000017313-25-000146	17313	CAPITAL SOUTHWEST CORP	US	TX	DALLAS	75225	8333 DOUGLAS AVE	SUITE 1100	2142385700	US	TX	DALLAS	75225	8333 DOUGLAS AVE	SUITE 1100	US	TX	751072796			1-LAF	0	0331	10-Q	20250930	2026	Q2	20251103	814-00061	2025-11-03 16:12:00.0	0	1	cswc-20250930_htm.xml			https://www.sec.gov/ix?doc=/Archives/edgar/data/17313/000001731325000146/cswc-20250930.htm
0001193125-25-276913	1825265	TCW DIRECT LENDING VIII LLC	US	CA	LOS ANGELES	90071	515 SOUTH FLOWER ST		2132440000	US	CA	LOS ANGELES	90071	515 SOUTH FLOWER ST		US	DE	000000000			4-NON	0	1231	10-Q	20250930	2025	Q3	20251112	814-01420	2025-11-12 13:22:00.0	0	1	ck0001825265-20250930_htm.xml			https://www.sec.gov/ix?doc=/Archives/edgar/data/1825265/000119312525276913/ck0001825265-20250930.htm
0001193125-25-277541	1772704	GOLDMAN SACHS PRIVATE MIDDLE MARKET CREDIT II LLC	US	NY	NEW YORK	10282-2198	200 WEST STREET		212-902-1000	US	NY	NEW YORK	10282-2198	200 WEST STREET		US	DE	000000000			4-NON	0	1231	10-Q	20250930	2025	Q3	20251112	814-01307	2025-11-12 16:08:00.0	0	1	ck0001772704-20250930_htm.xml			https://www.sec.gov/ix?doc=/Archives/edgar/data/1772704/000119312525277541/ck0001772704-20250930.htm
0001193125-25-269482	1372807	BCP INVESTMENT CORP	US	NY	NEW YORK	10022	650 MADISON AVNUE	3RD FLOOR	212.891.2880	US	NY	NEW YORK	10022	650 MADISON AVNUE	3RD FLOOR	US	DE	205951150	PORTMAN RIDGE FINANCE CORP	20190401	4-NON	0	1231	10-Q	20250930	2025	Q3	20251106	814-00735	2025-11-06 16:09:00.0	0	1	bcic-20250930_htm.xml			https://www.sec.gov/ix?doc=/Archives/edgar/data/1372807/000119312525269482/bcic-20250930.htm
0002031750-25-000043	2031750	ARES CORE INFRASTRUCTURE FUND	US	CA	LOS ANGELES	90067	C/O ARES MANAGEMENT LLC	2000 AVENUE OF THE STARS, 12TH FLOOR	(310) 201-4100	US	CA	LOS ANGELES	90067	C/O ARES MANAGEMENT LLC	2000 AVENUE OF THE STARS, 12TH FLOOR	US	DE	996541890			4-NON	0	1231	10-Q	20250930	2025	Q3	20251107	814-01811	2025-11-07 17:08:00.0	0	1	aci-20250930_htm.xml			https://www.sec.gov/ix?doc=/Archives/edgar/data/2031750/000203175025000043/aci-20250930.htm
0001193125-25-280627	1976336	ANTARES PRIVATE CREDIT FUND	US	IL	CHICAGO	60661	C/O ANTARES CAPITAL CREDIT ADVISERS LLC	500 WEST MONROE STREET, SUITE 1700	312-638-4000	US	IL	CHICAGO	60661	C/O ANTARES CAPITAL CREDIT ADVISERS LLC	500 WEST MONROE STREET, SUITE 1700	US	DE	000000000			4-NON	0	1231	10-Q	20250930	2025	Q3	20251114	814-01793	2025-11-13 18:15:00.0	0	1	ck0001976336-20250930_htm.xml			https://www.sec.gov/ix?doc=/Archives/edgar/data/1976336/000119312525280627/ck0001976336-20250930.htm
0001193125-25-264653	1743415	SCP PRIVATE CREDIT INCOME BDC LLC	US	NY	NEW YORK	10022	500 PARK AVENUE	5TH FLOOR	(212) 993-1670	US	NY	NEW YORK	10022	500 PARK AVENUE	5TH FLOOR	US	DE	000000000			4-NON	0	1231	10-Q	20250930	2025	Q3	20251104	814-01294	2025-11-04 16:06:00.0	0	1	ck0001743415-20250930_htm.xml			https://www.sec.gov/ix?doc=/Archives/edgar/data/1743415/000119312525264653/ck0001743415-20250930.htm
0001193125-25-293703	1383414	PENNANTPARK INVESTMENT CORP	US	NY	NEW YORK	10022	590 MADISON AVENUE	15TH FLOOR	212-905-1000	US	NY	NEW YORK	10022	590 MADISON AVENUE	15TH FLOOR			208250744	PENNANT INVESTMENT CORP	20061229	2-ACC	0	0930	10-K	20250930	2025	FY	20251124	814-00736	2025-11-24 16:15:00.0	0	1	pnnt-20250930_htm.xml	443600000.00	20250331	https://www.sec.gov/ix?doc=/Archives/edgar/data/1383414/000119312525293703/pnnt-20250930.htm
0001628280-25-051646	2012839	KKR ENHANCED US DIRECT LENDING FUND-L INC.	US	CA	SAN FRANCISCO	94104	555 CALIFORNIA STREET, 50TH FLOOR		415-315-3620	US	CA	SAN FRANCISCO	94104	555 CALIFORNIA STREET, 50TH FLOOR		US	DE	996101395	KKR ENHANCED US DIRECT LENDING FUND-L	20240221	4-NON	0	1231	10-Q	20250930	2025	Q3	20251112	814-01724	2025-11-12 16:39:00.0	0	1	ebdc-20250930_htm.xml			https://www.sec.gov/ix?doc=/Archives/edgar/data/2012839/000162828025051646/ebdc-20250930.htm
0001976719-25-000019	1976719	NEW MOUNTAIN GUARDIAN IV INCOME FUND, L.L.C.	US	NY	NEW YORK	10019	1633 BROADWAY	48TH FLOOR	212-720-0300	US	NY	NEW YORK	10019	1633 BROADWAY	48TH FLOOR	US	DE	920964074	NEW MOUNTAIN GUARDIAN IV UNLEVERED BDC, L.L.C.	20230505	4-NON	0	1231	10-Q	20250930	2025	Q3	20251113	814-01639	2025-11-13 14:19:00.0	0	1	nmg4if-20250930_htm.xml			https://www.sec.gov/ix?doc=/Archives/edgar/data/1976719/000197671925000019/nmg4if-20250930.htm
0001812554-25-000081	1812554	BLUE OWL CREDIT INCOME CORP.	US	NY	NEW YORK	10022	399 PARK AVENUE		(212) 419-3000	US	NY	NEW YORK	10022	399 PARK AVENUE		US	MD	000000000	OWL ROCK CORE INCOME CORP.	20200519	4-NON	0	1231	10-Q	20250930	2025	Q3	20251106	814-01369	2025-11-06 16:05:00.0	0	1	orcic-20250930_htm.xml			https://www.sec.gov/ix?doc=/Archives/edgar/data/1812554/000181255425000081/orcic-20250930.htm
0001869453-25-000061	1869453	BLUE OWL TECHNOLOGY INCOME CORP.	US	NY	NEW YORK	10002	399 PARK AVENUE		212.419.3000	US	NY	NEW YORK	10002	399 PARK AVENUE		US	MD	000000000	OWL ROCK TECHNOLOGY INCOME CORP.	20210624	4-NON	0	1231	10-Q	20250930	2025	Q3	20251106	814-01445	2025-11-06 16:12:00.0	0	1	ortic-20250930_htm.xml			https://www.sec.gov/ix?doc=/Archives/edgar/data/1869453/000186945325000061/ortic-20250930.htm
0002037804-25-000020	2037804	NEW MOUNTAIN PRIVATE CREDIT FUND	US	NY	NEW YORK	10019	1633 BROADWAY, 48TH FLOOR		212-720-0300	US	NY	NEW YORK	10019	1633 BROADWAY, 48TH FLOOR		US	MD	996860731			4-NON	0	1231	10-Q	20250930	2025	Q3	20251112	814-01762	2025-11-12 13:51:00.0	0	1	newcred-20250930_htm.xml			https://www.sec.gov/ix?doc=/Archives/edgar/data/2037804/000203780425000020/newcred-20250930.htm
0000930413-25-003431	2008748	LORD ABBETT PRIVATE CREDIT FUND	US	NJ	JERSEY CITY	07302	C/O LORD, ABBETT & CO. LLC	30 HUDSON STREET	888-522-2388	US	NJ	JERSEY CITY	07302	C/O LORD, ABBETT & CO. LLC	30 HUDSON STREET	US	DE	934670837	LORD ABBETT PRIVATE CREDIT FUND 1, LP	20240118	4-NON	0	1231	10-Q	20250930	2025	Q3	20251113	814-01764	2025-11-13 12:28:00.0	0	1	c114200_10q-ixbrl_htm.xml			https://www.sec.gov/ix?doc=/Archives/edgar/data/2008748/000093041325003431/c114200_10q-ixbrl.htm
0001193125-25-269116	2011498	AGL PRIVATE CREDIT INCOME FUND	US	NY	NEW YORK	10022	C/O AGL 535 MADISON AVENUE	24TH FLOOR	212-973-8600	US	NY	NEW YORK	10022	C/O AGL 535 MADISON AVENUE	24TH FLOOR	US	DE	000000000	AGL PRIVATE CREDIT INCOME FUND LP	20240209	4-NON	0	1231	10-Q	20250930	2025	Q3	20251106	814-01782	2025-11-06 14:56:00.0	0	1	ck0002011498-20250930_htm.xml			https://www.sec.gov/ix?doc=/Archives/edgar/data/2011498/000119312525269116/ck0002011498-20250930.htm
0001521945-25-000094	1521945	PROSPECT FLOATING RATE & ALTERNATIVE INCOME FUND, INC.	US	NY	NEW YORK	10016	10 EAST 40TH STREET, 42ND FLOOR		212-448-0702	US	NY	NEW YORK	10016	10 EAST 40TH STREET, 42ND FLOOR		US	MD	452460782	PROSPECT SUSTAINABLE INCOME FUND, INC.	20220112	4-NON	0	0630	10-Q	20250930	2026	Q1	20251112	814-00908	2025-11-12 16:15:00.0	0	1	pfloat-20250930_htm.xml			https://www.sec.gov/ix?doc=/Archives/edgar/data/1521945/000152194525000094/pfloat-20250930.htm
0001193125-25-277996	1841514	COMMONWEALTH CREDIT PARTNERS BDC I, INC.	US	FL	WEST PALM BEACH	33401	C/O COMVEST CAPITAL ADVISORS, LLC	360 S. ROSEMARY, SUITE 1700	561.727.2100	US	FL	WEST PALM BEACH	33401	C/O COMVEST CAPITAL ADVISORS, LLC	360 S. ROSEMARY, SUITE 1700	US	DE	000000000			4-NON	0	1231	10-Q	20250930	2025	Q3	20251112	814-01387	2025-11-12 17:20:00.0	0	1	ck0001841514-20250930_htm.xml			https://www.sec.gov/ix?doc=/Archives/edgar/data/1841514/000119312525277996/ck0001841514-20250930.htm
0001104659-25-110161	1979306	ANDALUSIAN CREDIT COMPANY, LLC	US	NY	NEW YORK	10019	40 WEST 57TH STREET	SUITE 1700	(973) 314-3045	US	NY	NEW YORK	10019	40 WEST 57TH STREET	SUITE 1700	US	DE	922145091			4-NON	0	1231	10-Q	20250930	2025	Q3	20251112	814-01670	2025-11-12 13:09:00.0	0	1	tmb-20250930x10q_htm.xml			https://www.sec.gov/ix?doc=/Archives/edgar/data/1979306/000110465925110161/tmb-20250930x10q.htm
0001193125-25-277785	1825384	STONE POINT CREDIT CORP	US	CT	GREENWICH	06830	20 HORSENECK LANE		(203) 862-2900	US	CT	GREENWICH	06830	20 HORSENECK LANE		US	DE	000000000	STONE POINT CAPITAL CREDIT LLC	20200918	4-NON	0	1231	10-Q	20250930	2025	Q3	20251112	814-01375	2025-11-12 16:38:00.0	0	1	none-20250930_htm.xml			https://www.sec.gov/ix?doc=/Archives/edgar/data/1825384/000119312525277785/none-20250930.htm
0001193125-25-266824	2043759	LAGO EVERGREEN CREDIT	US	IL	CHICAGO	60606	10 S. WACKER DR.	SUITE 3540	773-417-5246	US	IL	CHICAGO	60606	10 S. WACKER DR.	SUITE 3540	US	DE	000000000			4-NON	0	1231	10-Q	20250930	2025	Q3	20251105	000-56728	2025-11-05 15:58:00.0	0	1	ck0002043759-20250930_htm.xml			https://www.sec.gov/ix?doc=/Archives/edgar/data/2043759/000119312525266824/ck0002043759-20250930.htm
0000930413-25-003432	2041841	LORD ABBETT PRIVATE CREDIT FUND S	US	NJ	JERSEY CITY	07302	C/O LORD, ABBETT & CO. LLC	30 HUDSON STREET	8885222388	US	NJ	JERSEY CITY	07302	C/O LORD, ABBETT & CO. LLC	30 HUDSON STREET	US	DE	995126353	LORD ABBETT PRIVATE CREDIT FUND A, LP	20241018	4-NON	0	1231	10-Q	20250930	2025	Q3	20251113	814-01843	2025-11-13 12:30:00.0	0	1	c114201_10q-ixbrl_htm.xml			https://www.sec.gov/ix?doc=/Archives/edgar/data/2041841/000093041325003432/c114201_10q-ixbrl.htm
0001193125-25-280633	1959604	JEFFERIES CREDIT PARTNERS BDC INC.	US	NY	NEW YORK	10022	520 MADISON AVENUE		(212) 708-2612	US	NY	NEW YORK	10022	520 MADISON AVENUE		US	MD	000000000			4-NON	0	1231	10-Q	20250930	2025	Q3	20251114	814-01684	2025-11-13 18:16:00.0	0	1	ck0001959604-20250930_htm.xml			https://www.sec.gov/ix?doc=/Archives/edgar/data/1959604/000119312525280633/ck0001959604-20250930.htm
0001287032-25-000339	1287032	PROSPECT CAPITAL CORP	US	NY	NEW YORK	10016	10 EAST 40TH STREET 44TH FL		212-448-0702	US	NY	NEW YORK	10016	10 EAST 40TH STREET 44TH FL		US	MD	432048643	PROSPECT ENERGY CORP	20040623	1-LAF	0	0630	10-Q	20250930	2026	Q1	20251106	814-00659	2025-11-06 16:18:00.0	0	1	psec-20250930_htm.xml			https://www.sec.gov/ix?doc=/Archives/edgar/data/1287032/000128703225000339/psec-20250930.htm
0001193125-25-280735	1849894	MSD INVESTMENT CORP.	US	NY	NEW YORK	10017-5407	C/O MSD PARTNERS, L.P.	1 VANDERBILT AVE, 26TH FLOOR	212.303.4758	US	NY	NEW YORK	10017-5407	C/O MSD PARTNERS, L.P.	1 VANDERBILT AVE, 26TH FLOOR	US	MD	000000000	MSD INVESTMENT, LLC	20211117	4-NON	0	1231	10-Q	20250930	2025	Q3	20251114	814-01481	2025-11-13 19:55:00.0	0	1	ck0001849894-20250930_htm.xml			https://www.sec.gov/ix?doc=/Archives/edgar/data/1849894/000119312525280735/ck0001849894-20250930.htm
0001193125-25-277817	1633858	AUDAX CREDIT BDC INC.	US	MA	BOSTON	02199	101 HUNTINGTON AVENUE		(617) 859-1513	US	MA	BOSTON	02199	101 HUNTINGTON AVENUE		US	DE	473039124	AUDAX CREDIT BDC, INC.	20150415	4-NON	0	1231	10-Q	20250930	2025	Q3	20251112	814-01154	2025-11-12 16:47:00.0	0	1	ck0001633858-20250930_htm.xml			https://www.sec.gov/ix?doc=/Archives/edgar/data/1633858/000119312525277817/ck0001633858-20250930.htm
0001437749-25-035241	1495584	FIRSTHAND TECHNOLOGY VALUE FUND, INC.	US	CA	SAN JOSE	95113	150 ALMADEN BLVD.	SUITE 1250	408-886-7096	US	CA	SAN JOSE	95113	150 ALMADEN BLVD.	SUITE 1250			273008946			4-NON	0	1231	10-Q	20250930	2025	Q3	20251114	814-00830	2025-11-14 17:15:00.0	0	1	sccv20250930_10q_htm.xml			https://www.sec.gov/ix?doc=/Archives/edgar/data/1495584/000143774925035241/sccv20250930_10q.htm
0001193125-25-269547	1653384	RUNWAY GROWTH FINANCE CORP.	US	IL	CHICAGO	60601	205 N. MICHIGAN AVE.	SUITE 4200	(312) 281-6270	US	IL	CHICAGO	60601	205 N. MICHIGAN AVE.	SUITE 4200	US	MD	475049745	RUNWAY GROWTH CREDIT FUND INC.	20170613	2-ACC	0	1231	10-Q	20250930	2025	Q3	20251106	814-01180	2025-11-06 16:14:00.0	0	1	rway-20250930_htm.xml			https://www.sec.gov/ix?doc=/Archives/edgar/data/1653384/000119312525269547/rway-20250930.htm
0001193125-25-280629	1959568	SENIOR CREDIT INVESTMENTS, LLC	US	NY	NEW YORK	10022	520 MADISON AVENUE		212-708-2748	US	NY	NEW YORK	10022	520 MADISON AVENUE		US	DE	000000000			4-NON	0	1231	10-Q	20250930	2025	Q3	20251114	814-01685	2025-11-13 18:14:00.0	0	1	ck0001959568-20250930_htm.xml			https://www.sec.gov/ix?doc=/Archives/edgar/data/1959568/000119312525280629/ck0001959568-20250930.htm
